NORAD_CAT_ID,OBJECT_NAME,OBJECT_TYPE,EPOCH,MEAN_MOTION,ECCENTRICITY,INCLINATION,RA_OF_ASC_NODE,ARG_OF_PERICENTER,MEAN_ANOMALY,BSTAR,MEAN_MOTION_DOT,MEAN_MOTION_DDOT,TLE_LINE0,TLE_LINE1,TLE_LINE2,SEMIMAJOR_AXIS,PERIOD,APOGEE,PERIGEE,DECAYED
49754.0,STARLINK-3193,PAYLOAD,2023-02-13 00:00:00,15.07185581,0.0001605,53.2151,130.1219,70.2632,164.1004,0.0031208,0.00047516,0.0,0 STARLINK-3193,1 49754U 21115AG  23044.00001157  .00047516  00000-0  31208-2 0  9995,2 49754  53.2151 130.1219 0001605  70.2632 164.1004 15.07185581 67603,6922.942,95.542,545.918,543.696,0.0
49754.0,STARLINK-3193,PAYLOAD,2023-02-13 14:00:01,15.07250165,0.0001555,53.2153,127.5113,70.8503,90.3875,-0.007514,-0.00113001,0.0,0 STARLINK-3193,1 49754U 21115AG  23044.58334491 -.00113001  00000-0 -75140-2 0  9996,2 49754  53.2153 127.5113 0001555  70.8503  90.3875 15.07250165  1307,6922.744,95.538,545.686,543.533,0.0
49754.0,STARLINK-3193,PAYLOAD,2023-02-13 16:00:00,15.07192951,0.0001499,53.2152,127.1383,69.6853,183.9814,-0.0015313,-0.00023509,0.0,0 STARLINK-3193,1 49754U 21115AG  23044.66667824 -.00023509  00000-0 -15313-2 0  9993,2 49754  53.2152 127.1383 0001499  69.6853 183.9814 15.07192951 67708,6922.919,95.542,545.822,543.747,0.0
49754.0,STARLINK-3193,PAYLOAD,2023-02-14 06:00:02,15.07198619,0.0001422,53.2156,124.5242,84.9153,95.618,0.0023312,0.00035374,0.0,0 STARLINK-3193,1 49754U 21115AG  23045.25002315  .00035374  00000-0  23312-2 0  9996,2 49754  53.2156 124.5242 0001422  84.9153  95.6180 15.07198619 67786,6922.902,95.541,545.751,543.783,0.0
49754.0,STARLINK-3193,PAYLOAD,2023-02-14 14:00:01,15.07217658,0.0001456,53.2157,123.0334,78.9062,111.2097,-0.0029255,-0.00044553,0.0,0 STARLINK-3193,1 49754U 21115AG  23045.58334491 -.00044553  00000-0 -29255-2 0  9998,2 49754  53.2157 123.0334 0001456  78.9062 111.2097 15.07217658  1305,6922.844,95.54,545.717,543.701,0.0
49754.0,STARLINK-3193,PAYLOAD,2023-02-14 16:20:35,15.07211005,0.000183,53.215,122.595,74.2666,285.8527,5.1665e-05,5.03e-06,0.0,0 STARLINK-3193,1 49754U 21115AG  23045.68097040  .00000503  00000-0  51665-4 0  9992,2 49754  53.2150 122.5950 0001830  74.2666 285.8527 15.07211005 67859,6922.864,95.541,545.996,543.462,0.0
49754.0,STARLINK-3193,PAYLOAD,2023-02-15 08:15:29,15.07203538,0.0001394,53.2185,119.6268,70.7145,289.3997,3.9209e-05,3.13e-06,0.0,0 STARLINK-3193,1 49754U 21115AG  23046.34409256  .00000313  00000-0  39209-4 0  9991,2 49754  53.2185 119.6268 0001394  70.7145 289.3997 15.07203538 67957,6922.887,95.541,545.717,543.787,0.0
49754.0,STARLINK-3193,PAYLOAD,2023-02-15 11:26:27,15.07218378,0.0001243,53.2183,119.0318,80.4785,279.6347,0.00018043,2.465e-05,0.0,0 STARLINK-3193,1 49754U 21115AG  23046.47670315  .00002465  00000-0  18043-3 0  9993,2 49754  53.2183 119.0318 0001243  80.4785 279.6347 15.07218378 67977,6922.841,95.54,545.567,543.846,0.0
49754.0,STARLINK-3193,PAYLOAD,2023-02-15 16:12:53,15.07240233,0.0001432,53.2179,118.1416,80.5678,279.5475,0.00016099,2.17e-05,0.0,0 STARLINK-3193,1 49754U 21115AG  23046.67562315  .00002170  00000-0  16099-3 0  9997,2 49754  53.2179 118.1416 0001432  80.5678 279.5475 15.07240233 68004,6922.775,95.539,545.631,543.648,0.0
49754.0,STARLINK-3193,PAYLOAD,2023-02-16 08:07:49,15.07203199,0.0001194,53.2183,115.1716,87.8455,272.2673,0.00023262,3.259e-05,0.0,0 STARLINK-3193,1 49754U 21115AG  23047.33876212  .00003259  00000-0  23262-3 0  9994,2 49754  53.2183 115.1716 0001194  87.8455 272.2673 15.07203199 68108,6922.888,95.541,545.58,543.926,0.0
49754.0,STARLINK-3193,PAYLOAD,2023-02-16 11:18:46,15.07228869,0.000154,53.2173,114.5771,91.7079,268.4088,0.00022124,3.088e-05,0.0,0 STARLINK-3193,1 49754U 21115AG  23047.47137031  .00003088  00000-0  22124-3 0  9994,2 49754  53.2173 114.5771 0001540  91.7079 268.4088 15.07228869 68122,6922.809,95.54,545.74,543.608,0.0
49754.0,STARLINK-3193,PAYLOAD,2023-02-16 14:29:44,15.07233825,0.0001547,53.2175,113.9823,103.9544,256.162,0.0002823,4.02e-05,0.0,0 STARLINK-3193,1 49754U 21115AG  23047.60398822  .00004020  00000-0  28230-3 0  9997,2 49754  53.2175 113.9823 0001547 103.9544 256.1620 15.07233825 67038,6922.794,95.539,545.73,543.588,0.0
49754.0,STARLINK-3193,PAYLOAD,2023-02-17 11:11:09,15.07188133,0.0001847,53.2179,110.1227,95.842,264.2782,-0.0001252,-2.188e-05,0.0,0 STARLINK-3193,1 49754U 21115AG  23048.46608599 -.00002188  00000-0 -12520-3 0  9997,2 49754  53.2179 110.1227 0001847  95.8420 264.2782 15.07188133 68271,6922.934,95.542,546.078,543.52,0.0
49754.0,STARLINK-3193,PAYLOAD,2023-02-17 15:57:37,15.07197354,0.0001227,53.2184,109.232,84.5846,275.5286,-0.00016151,-2.74e-05,0.0,0 STARLINK-3193,1 49754U 21115AG  23048.66502113 -.00002740  00000-0 -16151-3 0  9992,2 49754  53.2184 109.2320 0001227  84.5846 275.5286 15.07197354 67198,6922.906,95.542,545.62,543.921,0.0
49754.0,STARLINK-3193,PAYLOAD,2023-02-18 14:14:28,15.07204515,0.0001129,53.2174,105.0746,93.5259,266.5862,-0.00010991,-1.956e-05,0.0,0 STARLINK-3193,1 49754U 21115AG  23049.59338596 -.00001956  00000-0 -10991-3 0  9991,2 49754  53.2174 105.0746 0001129  93.5259 266.5862 15.07204515 67336,6922.884,95.541,545.531,543.967,0.0
49754.0,STARLINK-3193,PAYLOAD,2023-02-18 20:36:20,15.07316418,0.0001263,53.2182,103.8887,96.8248,263.2887,0.0017351,0.00026307,0.0,0 STARLINK-3193,1 49754U 21115AG  23049.85856754  .00026307  00000-0  17351-2 0  9992,2 49754  53.2182 103.8887 0001263  96.8248 263.2887 15.07316418 68484,6922.541,95.534,545.281,543.532,0.0
49754.0,STARLINK-3193,PAYLOAD,2023-02-19 10:55:15,15.07597196,0.00016,53.2177,101.2122,144.5805,215.5294,0.0035514,0.00054778,0.0,0 STARLINK-3193,1 49754U 21115AG  23050.45503749  .00054778  00000-0  35514-2 0  9997,2 49754  53.2177 101.2122 0001600 144.5805 215.5294 15.07597196 68573,6921.682,95.516,544.654,542.439,0.0
49754.0,STARLINK-3193,PAYLOAD,2023-02-19 20:27:49,15.07774809,9.71e-05,53.2172,99.4296,150.8606,209.244,0.0046976,0.0007309,0.0,0 STARLINK-3193,1 49754U 21115AG  23050.85265873  .00073090  00000-0  46976-2 0  9996,2 49754  53.2172  99.4296 0000971 150.8606 209.2440 15.07774809 68635,6921.138,95.505,543.675,542.331,0.0
49754.0,STARLINK-3193,PAYLOAD,2023-02-20 09:10:57,15.08180861,0.0001004,53.2173,97.0506,116.1326,243.9769,0.0073331,0.00116236,0.0,0 STARLINK-3193,1 49754U 21115AG  23051.38261027  .00116236  00000-0  73331-2 0  9997,2 49754  53.2173  97.0506 0001004 116.1326 243.9769 15.08180861 68714,6919.896,95.479,542.456,541.066,0.0
49754.0,STARLINK-3193,PAYLOAD,2023-02-20 13:57:12,15.0823008,0.0001211,53.2177,96.1595,98.5283,261.5846,0.0073662,0.00116931,0.0,0 STARLINK-3193,1 49754U 21115AG  23051.58140017  .00116931  00000-0  73662-2 0  9993,2 49754  53.2177  96.1595 0001211  98.5283 261.5846 15.08230080 68745,6919.745,95.476,542.448,540.772,0.0
49754.0,STARLINK-3193,PAYLOAD,2023-02-21 02:00:01,15.08820254,0.0001206,53.2154,93.9079,101.0854,106.0236,0.002855,0.00045418,0.0,0 STARLINK-3193,1 49754U 21115AG  23052.08334491  .00045418  00000-0  28550-2 0  9997,2 49754  53.2154  93.9079 0001206 101.0854 106.0236 15.08820254 68812,6917.941,95.439,540.64,538.971,0.0
49754.0,STARLINK-3193,PAYLOAD,2023-02-21 14:00:01,15.0880747,0.0001182,53.2154,91.6649,77.7223,326.7963,0.0024195,0.00038394,0.0,0 STARLINK-3193,1 49754U 21115AG  23052.58334491  .00038394  00000-0  24195-2 0  9998,2 49754  53.2154  91.6649 0001182  77.7223 326.7963 15.08807470  1306,6917.98,95.44,540.663,539.027,0.0
49754.0,STARLINK-3193,PAYLOAD,2023-02-21 16:00:00,15.08818138,0.0001191,53.2154,91.2903,76.7909,60.6182,0.0013579,0.00021376,0.0,0 STARLINK-3193,1 49754U 21115AG  23052.66667824  .00021376  00000-0  13579-2 0  9992,2 49754  53.2154  91.2903 0001191  76.7909  60.6182 15.08818138 68904,6917.947,95.439,540.636,538.988,0.0
49754.0,STARLINK-3193,PAYLOAD,2023-02-22 00:00:00,15.08819693,0.0001154,53.2157,89.7922,90.0994,58.8994,0.004278,0.00068419,0.0,0 STARLINK-3193,1 49754U 21115AG  23053.00001157  .00068419  00000-0  42780-2 0  9997,2 49754  53.2157  89.7922 0001154  90.0994  58.8994 15.08819693  1300,6917.942,95.439,540.606,539.009,0.0
49754.0,STARLINK-3193,PAYLOAD,2023-02-22 14:00:01,15.08804136,0.0001076,53.2158,87.1751,85.3228,353.9824,0.001972,0.00031205,0.0,0 STARLINK-3193,1 49754U 21115AG  23053.58334491  .00031205  00000-0  19720-2 0  9991,2 49754  53.2158  87.1751 0001076  85.3228 353.9824 15.08804136 69045,6917.99,95.44,540.599,539.111,0.0
49754.0,STARLINK-3193,PAYLOAD,2023-02-22 22:00:00,15.08801176,0.0001065,53.2161,85.6768,99.1049,351.7741,0.0036139,0.00057636,0.0,0 STARLINK-3193,1 49754U 21115AG  23053.91667824  .00057636  00000-0  36139-2 0  9996,2 49754  53.2161  85.6768 0001065  99.1049 351.7741 15.08801176  1302,6917.999,95.44,540.601,539.127,0.0
49754.0,STARLINK-3193,PAYLOAD,2023-02-23 14:00:01,15.08818506,0.00011,53.2161,82.6855,77.3992,36.6572,0.002067,0.00032742,0.0,0 STARLINK-3193,1 49754U 21115AG  23054.58334491  .00032742  00000-0  20670-2 0  9995,2 49754  53.2161  82.6855 0001100  77.3992  36.6572 15.08818506  1307,6917.946,95.439,540.572,539.05,0.0
49754.0,STARLINK-3193,PAYLOAD,2023-02-23 16:00:00,15.08836411,0.0001107,53.2162,82.3108,80.097,126.8501,-8.051e-06,-4.16e-06,0.0,0 STARLINK-3193,1 49754U 21115AG  23054.66667824 -.00000416  00000-0 -80510-5 0  9990,2 49754  53.2162  82.3108 0001107  80.0970 126.8501 15.08836411 69202,6917.891,95.438,540.522,538.991,0.0
49754.0,STARLINK-3193,PAYLOAD,2023-02-23 22:00:00,15.08814103,0.0001044,53.2165,81.1874,91.9645,33.6808,0.0037567,0.00059966,0.0,0 STARLINK-3193,1 49754U 21115AG  23054.91667824  .00059966  00000-0  37567-2 0  9991,2 49754  53.2165  81.1874 0001044  91.9645  33.6808 15.08814103  1308,6917.96,95.439,540.547,539.102,0.0
49754.0,STARLINK-3193,PAYLOAD,2023-02-24 11:45:13,15.08854207,0.0001325,53.217,78.6153,98.0648,262.0495,0.00062533,9.682e-05,0.0,0 STARLINK-3193,1 49754U 21115AG  23055.48973776  .00009682  00000-0  62533-3 0  9992,2 49754  53.2170  78.6153 0001325  98.0648 262.0495 15.08854207 68221,6917.837,95.437,540.619,538.785,0.0
